NORAD_CAT_ID,OBJECT_NAME,OBJECT_TYPE,EPOCH,MEAN_MOTION,ECCENTRICITY,INCLINATION,RA_OF_ASC_NODE,ARG_OF_PERICENTER,MEAN_ANOMALY,BSTAR,MEAN_MOTION_DOT,MEAN_MOTION_DDOT,TLE_LINE0,TLE_LINE1,TLE_LINE2,SEMIMAJOR_AXIS,PERIOD,APOGEE,PERIGEE,DECAYED
53825.0,STARLINK-4751,PAYLOAD,2023-12-17 06:57:22,15.08843979,0.0001778,53.2196,355.7561,72.5612,287.5574,-4.9664e-05,-1.079e-05,0.0,0 STARLINK-4751,1 53825U 22114H   23351.28984695 -.00001079  00000-0 -49664-4 0  9990,2 53825  53.2196 355.7561 0001778  72.5612 287.5574 15.08843979 69499,6917.868,95.437,540.963,538.503,0.0
53825.0,STARLINK-4751,PAYLOAD,2023-12-18 03:37:22,15.08846456,0.0001643,53.2189,351.8934,108.8942,251.2229,0.00013001,1.782e-05,0.0,0 STARLINK-4751,1 53825U 22114H   23352.15095572  .00001782  00000-0  13001-3 0  9998,2 53825  53.2189 351.8934 0001643 108.8942 251.2229 15.08846456 69625,6917.861,95.437,540.862,538.589,0.0
53825.0,STARLINK-4751,PAYLOAD,2023-12-18 06:48:08,15.08850447,0.0001645,53.2189,351.2956,88.9834,271.1347,0.00016245,2.299e-05,0.0,0 STARLINK-4751,1 53825U 22114H   23352.28343273  .00002299  00000-0  16245-3 0  9993,2 53825  53.2189 351.2956 0001645  88.9834 271.1347 15.08850447 70183,6917.848,95.437,540.851,538.575,0.0
53825.0,STARLINK-4751,PAYLOAD,2023-12-19 03:28:11,15.08830535,0.0001218,53.2185,347.429,78.5262,281.5867,-0.00010491,-1.957e-05,0.0,0 STARLINK-4751,1 53825U 22114H   23353.14457546 -.00001957  00000-0 -10491-3 0  9997,2 53825  53.2185 347.4290 0001218  78.5262 281.5867 15.08830535 69774,6917.909,95.438,540.617,538.932,0.0
53825.0,STARLINK-4751,PAYLOAD,2023-12-19 06:38:57,15.08833072,0.0001266,53.2182,346.8346,83.9751,276.1386,-8.0386e-05,-1.567e-05,0.0,0 STARLINK-4751,1 53825U 22114H   23353.27705346 -.00001567  00000-0 -80386-4 0  9993,2 53825  53.2182 346.8346 0001266  83.9751 276.1386 15.08833072 70331,6917.902,95.438,540.642,538.891,0.0
53825.0,STARLINK-4751,PAYLOAD,2023-12-20 03:18:57,15.08844526,0.0001225,53.218,342.9712,93.5161,266.5971,-0.00010577,-1.971e-05,0.0,0 STARLINK-4751,1 53825U 22114H   23354.13816951 -.00001971  00000-0 -10577-3 0  9997,2 53825  53.2180 342.9712 0001225  93.5161 266.5971 15.08844526 69922,6917.867,95.437,540.579,538.884,0.0
53825.0,STARLINK-4751,PAYLOAD,2023-12-20 04:54:20,15.08858307,0.0001607,53.2185,342.6761,122.5146,237.6002,-0.00022582,-3.882e-05,0.0,0 STARLINK-4751,1 53825U 22114H   23354.20440495 -.00003882  00000-0 -22582-3 0  9993,2 53825  53.2185 342.6761 0001607 122.5146 237.6002 15.08858307 69935,6917.824,95.436,540.801,538.578,0.0
53825.0,STARLINK-4751,PAYLOAD,2023-12-21 03:09:44,15.08834237,0.0001122,53.2181,338.5131,96.4963,263.6157,0.0001836,2.635e-05,0.0,0 STARLINK-4751,1 53825U 22114H   23355.13176890  .00002635  00000-0  18360-3 0  9993,2 53825  53.2181 338.5131 0001122  96.4963 263.6157 15.08834237 70077,6917.898,95.438,540.539,538.987,0.0
53825.0,STARLINK-4751,PAYLOAD,2023-12-21 04:45:08,15.08831429,0.0001152,53.218,338.2169,100.5189,259.5933,0.00024471,3.608e-05,0.0,0 STARLINK-4751,1 53825U 22114H   23355.19800977  .00003608  00000-0  24471-3 0  9990,2 53825  53.2180 338.2169 0001152 100.5189 259.5933 15.08831429 70621,6917.907,95.438,540.569,538.975,0.0
53825.0,STARLINK-4751,PAYLOAD,2023-12-22 03:00:32,15.08836057,0.0001183,53.2182,334.0558,107.4013,252.7109,-6.2077e-05,-1.276e-05,0.0,0 STARLINK-4751,1 53825U 22114H   23356.12538019 -.00001276  00000-0 -62077-4 0  9995,2 53825  53.2182 334.0558 0001183 107.4013 252.7109 15.08836057 70223,6917.892,95.438,540.576,538.939,0.0
53825.0,STARLINK-4751,PAYLOAD,2023-12-22 06:11:18,15.08840656,0.000136,53.2184,333.4599,100.1122,260.0023,4.1808e-05,3.78e-06,0.0,0 STARLINK-4751,1 53825U 22114H   23356.25785535  .00000378  00000-0  41808-4 0  9995,2 53825  53.2184 333.4599 0001360 100.1122 260.0023 15.08840656 70240,6917.878,95.438,540.684,538.803,0.0
53825.0,STARLINK-4751,PAYLOAD,2023-12-23 07:37:28,15.088492,0.0001614,53.2187,328.6954,73.7095,286.4075,0.00011565,1.553e-05,0.0,0 STARLINK-4751,1 53825U 22114H   23357.31769014  .00001553  00000-0  11565-3 0  9999,2 53825  53.2187 328.6954 0001614  73.7095 286.4075 15.08849200 70401,6917.852,95.437,540.834,538.601,0.0
53825.0,STARLINK-4751,PAYLOAD,2023-12-23 21:55:57,15.08835813,0.0001763,53.2176,326.0252,79.7198,280.3993,5.3347e-05,5.61e-06,0.0,0 STARLINK-4751,1 53825U 22114H   23357.91386368  .00000561  00000-0  53347-4 0  9995,2 53825  53.2176 326.0252 0001763  79.7198 280.3993 15.08835813 71034,6917.893,95.438,540.978,538.539,0.0
53825.0,STARLINK-4751,PAYLOAD,2023-12-24 04:17:30,15.08839147,0.0001756,53.2171,324.837,82.5795,277.5397,7.7868e-05,9.51e-06,0.0,0 STARLINK-4751,1 53825U 22114H   23358.17882158  .00000951  00000-0  77868-4 0  9999,2 53825  53.2171 324.8370 0001756  82.5795 277.5397 15.08839147 70537,6917.883,95.438,540.963,538.533,0.0
53825.0,STARLINK-4751,PAYLOAD,2023-12-25 04:08:16,15.08850389,0.000183,53.217,320.3754,82.9457,277.1743,0.00018596,2.674e-05,0.0,0 STARLINK-4751,1 53825U 22114H   23359.17241480  .00002674  00000-0  18596-3 0  9993,2 53825  53.2170 320.3754 0001830  82.9457 277.1743 15.08850389 70683,6917.849,95.437,540.98,538.448,0.0
53825.0,STARLINK-4751,PAYLOAD,2023-12-25 07:19:02,15.08855385,0.0001825,53.2169,319.7767,100.5155,259.6043,0.00025585,3.788e-05,0.0,0 STARLINK-4751,1 53825U 22114H   23359.30489046  .00003788  00000-0  25585-3 0  9993,2 53825  53.2169 319.7767 0001825 100.5155 259.6043 15.08855385 71245,6917.833,95.437,540.961,538.436,0.0
53825.0,STARLINK-4751,PAYLOAD,2023-12-26 03:59:03,15.08841154,0.0001767,53.2179,315.9131,97.9559,262.1634,5.7618e-05,6.29e-06,0.0,0 STARLINK-4751,1 53825U 22114H   23360.16601804  .00000629  00000-0  57618-4 0  9991,2 53825  53.2179 315.9131 0001767  97.9559 262.1634 15.08841154 70839,6917.877,95.437,540.964,538.519,0.0
53825.0,STARLINK-4751,PAYLOAD,2023-12-26 07:09:50,15.08844015,0.0001798,53.2167,315.3153,110.5432,249.5753,8.8482e-05,1.121e-05,0.0,0 STARLINK-4751,1 53825U 22114H   23360.29849541  .00001121  00000-0  88482-4 0  9998,2 53825  53.2167 315.3153 0001798 110.5432 249.5753 15.08844015 71392,6917.868,95.437,540.977,538.489,0.0
53825.0,STARLINK-4751,PAYLOAD,2023-12-27 03:49:50,15.08859135,0.0001647,53.2172,311.4485,109.3083,250.8087,0.00021998,3.216e-05,0.0,0 STARLINK-4751,1 53825U 22114H   23361.15960741  .00003216  00000-0  21998-3 0  9995,2 53825  53.2172 311.4485 0001647 109.3083 250.8087 15.08859135 70982,6917.822,95.436,540.826,538.548,0.0
53825.0,STARLINK-4751,PAYLOAD,2023-12-27 19:43:42,15.08840507,0.0002133,53.2177,308.4805,74.9991,285.1238,0.00015879,2.24e-05,0.0,0 STARLINK-4751,1 53825U 22114H   23361.82201856  .00002240  00000-0  15879-3 0  9991,2 53825  53.2177 308.4805 0002133  74.9991 285.1238 15.08840507 71089,6917.879,95.438,541.219,538.268,0.0
53825.0,STARLINK-4751,PAYLOAD,2023-12-27 21:19:05,15.08837047,0.0001862,53.2171,308.1778,107.0006,253.1191,5.7759e-05,6.31e-06,0.0,0 STARLINK-4751,1 53825U 22114H   23361.88825975  .00000631  00000-0  57759-4 0  9997,2 53825  53.2171 308.1778 0001862 107.0006 253.1191 15.08837047 71631,6917.889,95.438,541.043,538.466,0.0
53825.0,STARLINK-4751,PAYLOAD,2023-12-28 03:40:38,15.08833672,0.0001656,53.2177,306.9888,114.698,245.4184,2.699e-05,1.41e-06,0.0,0 STARLINK-4751,1 53825U 22114H   23362.15322448  .00000141  00000-0  26990-4 0  9994,2 53825  53.2177 306.9888 0001656 114.6980 245.4184 15.08833672 71132,6917.9,95.438,540.91,538.619,0.0
53825.0,STARLINK-4751,PAYLOAD,2023-12-28 05:16:01,15.08837676,0.000155,53.2177,306.692,115.6125,244.5028,3.1764e-05,2.18e-06,0.0,0 STARLINK-4751,1 53825U 22114H   23362.21946188  .00000218  00000-0  31764-4 0  9994,2 53825  53.2177 306.6920 0001550 115.6125 244.5028 15.08837676 71686,6917.887,95.438,540.825,538.68,0.0
53825.0,STARLINK-4751,PAYLOAD,2023-12-29 03:31:25,15.08849878,0.0001551,53.2177,302.5359,108.7118,251.4043,9.5949e-09,-2.88e-06,0.0,0 STARLINK-4751,1 53825U 22114H   23363.14681955 -.00000288  00000-0  95949-8 0  9992,2 53825  53.2177 302.5359 0001551 108.7118 251.4043 15.08849878 71280,6917.85,95.437,540.788,538.642,0.0
53825.0,STARLINK-4751,PAYLOAD,2023-12-29 05:06:48,15.08852066,0.0001581,53.2182,302.2329,104.5467,255.57,3.1723e-05,2.17e-06,0.0,0 STARLINK-4751,1 53825U 22114H   23363.21305759  .00000217  00000-0  31723-4 0  9992,2 53825  53.2182 302.2329 0001581 104.5467 255.5700 15.08852066 71833,6917.844,95.437,540.802,538.615,0.0
53825.0,STARLINK-4751,PAYLOAD,2023-12-29 17:49:54,15.0883467,0.0001486,53.218,299.8533,99.7866,260.3294,0.00013542,1.868e-05,0.0,0 STARLINK-4751,1 53825U 22114H   23363.74298641  .00001868  00000-0  13542-3 0  9992,2 53825  53.2180 299.8533 0001486  99.7866 260.3294 15.08834670 71373,6917.897,95.438,540.79,538.734,0.0
53825.0,STARLINK-4751,PAYLOAD,2023-12-30 04:57:35,15.0884186,0.0001463,53.2178,297.7713,94.0418,266.0741,0.00016546,2.346e-05,0.0,0 STARLINK-4751,1 53825U 22114H   23364.20666213  .00002346  00000-0  16546-3 0  9997,2 53825  53.2178 297.7713 0001463  94.0418 266.0741 15.08841860 71989,6917.875,95.437,540.752,538.728,0.0
53825.0,STARLINK-4751,PAYLOAD,2023-12-30 19:16:04,15.08845237,0.0001428,53.2171,295.0996,82.7935,277.322,3.5681e-05,2.8e-06,0.0,0 STARLINK-4751,1 53825U 22114H   23364.80282485  .00000280  00000-0  35681-4 0  9995,2 53825  53.2171 295.0996 0001428  82.7935 277.3220 15.08845237 71535,6917.864,95.437,540.717,538.742,0.0
53825.0,STARLINK-4751,PAYLOAD,2023-12-31 19:06:51,15.08838611,0.0001637,53.2185,290.6394,74.6915,285.4258,4.1875e-05,3.78e-06,0.0,0 STARLINK-4751,1 53825U 22114H   23365.79642853  .00000378  00000-0  41875-4 0  9993,2 53825  53.2185 290.6394 0001637  74.6915 285.4258 15.08838611 71688,6917.885,95.438,540.882,538.617,0.0
53825.0,STARLINK-4751,PAYLOAD,2024-01-01 04:39:09,15.08842868,0.000148,53.2177,288.8515,89.1188,270.9974,6.9073e-05,8.12e-06,0.0,0 STARLINK-4751,1 53825U 22114H   24001.19386405  .00000812  00000-0  69073-4 0  9996,2 53825  53.2177 288.8515 0001480  89.1188 270.9974 15.08842868 72282,6917.872,95.437,540.76,538.713,0.0
